{
  "norad_id": 62303,
  "name": "STARLINK-32621",
  "history": [
    {
      "epoch": "2026-03-28T06:50:44.683296Z",
      "apogee_km": 476.0897812063795,
      "perigee_km": 474.291468037678,
      "latitude_deg": 3.692757257800585e-05,
      "longitude_deg": 166.17796665369863,
      "height_km": 475.9620589457603,
      "semi_major_axis_km": 6853.327624622028,
      "eccentricity": 0.0001312,
      "inclination_deg": 53.1604,
      "raan_deg": 94.572,
      "arg_perigee_deg": 81.9031,
      "mean_anomaly_deg": 278.2119,
      "mean_motion_rev_day": 15.30208187
    },
    {
      "epoch": "2026-03-29T04:47:29.388480Z",
      "apogee_km": 475.9874261196228,
      "perigee_km": 474.4056767359525,
      "latitude_deg": 7.884318629218116e-06,
      "longitude_deg": -168.15750674754196,
      "height_km": 475.6870288280241,
      "semi_major_axis_km": 6853.333551427787,
      "eccentricity": 0.0001154,
      "inclination_deg": 53.16,
      "raan_deg": 90.3241,
      "arg_perigee_deg": 58.9445,
      "mean_anomaly_deg": 301.1669,
      "mean_motion_rev_day": 15.30206202
    },
    {
      "epoch": "2026-03-29T23:36:07.781760Z",
      "apogee_km": 476.8076567159551,
      "perigee_km": 473.4646300766062,
      "latitude_deg": 9.567565478186246e-06,
      "longitude_deg": -94.7310036478718,
      "height_km": 476.11685183885436,
      "semi_major_axis_km": 6853.27314339628,
      "eccentricity": 0.0002439,
      "inclination_deg": 53.1595,
      "raan_deg": 86.6831,
      "arg_perigee_deg": 92.8933,
      "mean_anomaly_deg": 267.2347,
      "mean_motion_rev_day": 15.30226434
    },
    {
      "epoch": "2026-03-30T05:52:20.366688Z",
      "apogee_km": 475.96819899821367,
      "perigee_km": 474.43962984066184,
      "latitude_deg": 2.1490911040674e-05,
      "longitude_deg": 169.74496190340207,
      "height_km": 476.28811183089164,
      "semi_major_axis_km": 6853.3409144194375,
      "eccentricity": 0.00011152,
      "inclination_deg": 53.1604,
      "raan_deg": 85.469,
      "arg_perigee_deg": 104.072,
      "mean_anomaly_deg": 256.0405,
      "mean_motion_rev_day": 15.30203736
    }
  ]
}